GLOBALSTAR M069         
1 31573U 07020C   26177.60988189 -.00000056  00000+0  34208-3 0  9991
2 31573  52.0006 225.4569 0002123 168.8037 356.6971 12.23471505879953
GLOBALSTAR M072         
1 31574U 07020D   26177.68811367 -.00000088  00000+0 -51523-4 0  9999
2 31574  51.9936  74.9514 0001517 355.5886  26.0471 11.91658420876119
GLOBALSTAR M066         
1 32265U 07048C   26177.74705257 -.00000130  00000+0 -29676-3 0  9995
2 32265  51.9609  30.4692 0005624  64.5444  13.7022 12.30386851861409
GLOBALSTAR M079         
1 37188U 10054A   26177.50408578 -.00000112  00000+0 -44632-4 0  9995
2 37188  52.0044  80.3080 0000913  45.0013 125.7779 12.62266185723727
GLOBALSTAR M074         
1 37189U 10054B   26177.65233684 -.00000111  00000+0 -40805-4 0  9993
2 37189  52.0006  79.1205 0000632  64.3572 300.6926 12.62261610724359
GLOBALSTAR M076         
1 37190U 10054C   26177.68081983 -.00000116  00000+0 -66091-4 0  9991
2 37190  52.0029  79.2372 0000937  61.2933 313.1483 12.62261857724076
GLOBALSTAR M077         
1 37191U 10054D   26177.65147998 -.00000067  00000+0  20197-3 0  9998
2 37191  51.9925 155.2729 0002579 189.9051 341.0029 11.67547973722247
GLOBALSTAR M075         
1 37192U 10054E   26177.77352344 -.00000113  00000+0 -49938-4 0  9993
2 37192  51.9939 121.0038 0000401  36.9549 339.0641 12.62267386723153
GLOBALSTAR M073         
1 37193U 10054F   26177.61952660 -.00000091  00000+0  73803-4 0  9996
2 37193  52.0075  35.5809 0001063  66.3959 327.9293 12.62266644725123
GLOBALSTAR M083         
1 37739U 11033A   26177.70699248 -.00000076  00000+0  15656-3 0  9994
2 37739  51.9880 343.5298 0000958  82.3849 290.9882 12.62263624694159
GLOBALSTAR M088         
1 37740U 11033B   26177.63197851 -.00000082  00000+0  12254-3 0  9999
2 37740  52.0203 250.2110 0000498 140.7820  10.0137 12.62268977689688
GLOBALSTAR M091         
1 37741U 11033C   26177.56893778 -.00000076  00000+0  15368-3 0  9995
2 37741  51.9969 213.3536 0000070 178.3875 346.6598 12.62264096690466
GLOBALSTAR M085         
1 37742U 11033D   26177.71536310 -.00000097  00000+0  40328-4 0  9997
2 37742  52.0098 164.2065 0000331 354.6933 176.1225 12.62264177690998
GLOBALSTAR M081         
1 37743U 11033E   26177.74194007 -.00000091  00000+0  71745-4 0  9995
2 37743  51.9930 166.5512 0000229  35.5209 135.8320 12.62265240691149
GLOBALSTAR M089         
1 37744U 11033F   26177.62290983 -.00000111  00000+0 -41350-4 0  9996
2 37744  51.9919 121.0703 0000491  78.1915  92.9578 12.62267377691975
GLOBALSTAR M084         
1 38040U 11080A   26177.24013406 -.00000095  00000+0  49990-4 0  9997
2 38040  52.0028 349.7217 0001099 100.2401  70.5922 12.62267637669901
GLOBALSTAR M080         
1 38041U 11080B   26177.73115020 -.00000086  00000+0  96885-4 0  9992
2 38041  52.0084 349.9485 0000416  78.5089 294.7661 12.62269710670090
GLOBALSTAR M082         
1 38042U 11080C   26177.77601641 -.00000103  00000+0  50129-5 0  9998
2 38042  52.0090 305.3144 0000474 106.0366  41.0504 12.62263711670808
GLOBALSTAR M092         
1 38043U 11080D   26177.56280398 -.00000096  00000+0  41038-4 0  9997
2 38043  52.0097  36.3604 0000818  77.1480 299.7277 12.62267093669236
GLOBALSTAR M090         
1 38044U 11080E   26177.72331726 -.00000104  00000+0  20771-6 0  9991
2 38044  52.0135 299.4334 0000724 102.7186  43.9741 12.62269100670919
GLOBALSTAR M086         
1 38045U 11080F   26177.74519205 -.00000077  00000+0  15053-3 0  9997
2 38045  51.9911 299.2812 0001690  83.6353  64.1565 12.62287228670869
GLOBALSTAR M097         
1 39072U 13005A   26177.34830670 -.00000074  00000+0  16732-3 0  9997
2 39072  52.0016 215.4501 0000136 101.4550 258.6332 12.62271183618064
GLOBALSTAR M093         
1 39073U 13005B   26177.40064248 -.00000078  00000+0  14620-3 0  9993
2 39073  52.0076 208.6399 0000214  41.7015 318.3868 12.62266064618025
GLOBALSTAR M094         
1 39074U 13005C   26177.55888187 -.00000122  00000+0 -10073-3 0  9995
2 39074  51.9945 122.2641 0000649  27.4892 332.6009 12.62268488619654
GLOBALSTAR M096         
1 39075U 13005D   26177.25564899 -.00000094  00000+0  51738-4 0  9995
2 39075  52.0044 171.9966 0000254 358.7233   1.3633 12.62265644618539
GLOBALSTAR M078         
1 39076U 13005E   26177.54544692  .00000027  00000+0  72985-3 0  9998
2 39076  51.9866 255.1129 0000488 269.8316  90.2495 12.62259766617191
GLOBALSTAR M095         
1 39077U 13005F   26177.57216819 -.00000081  00000+0  12517-3 0  9995
2 39077  52.0075 252.6491 0000063  96.8414 263.2460 12.62263623617052
GLOBALSTAR M087         
1 52888U 22064A   26177.74373102 -.00000098  00000+0  29823-4 0  9990
2 52888  52.0011  33.3583 0000887  57.9165 302.1788 12.62269220192343
