OBJECT_NAME,OBJECT_ID,EPOCH,MEAN_MOTION,ECCENTRICITY,INCLINATION,RA_OF_ASC_NODE,ARG_OF_PERICENTER,MEAN_ANOMALY,EPHEMERIS_TYPE,CLASSIFICATION_TYPE,NORAD_CAT_ID,ELEMENT_SET_NO,REV_AT_EPOCH,BSTAR,MEAN_MOTION_DOT,MEAN_MOTION_DDOT
GLOBALSTAR M069,2007-020C,2026-06-26T14:38:13.795296,12.23471505,.0002123,52.0006,225.4569,168.8037,356.6971,0,U,31573,999,87995,.34208E-3,-.56E-6,0
GLOBALSTAR M072,2007-020D,2026-06-26T16:30:53.021088,11.91658420,.0001517,51.9936,74.9514,355.5886,26.0471,0,U,31574,999,87611,-.51523E-4,-.88E-6,0
GLOBALSTAR M066,2007-048C,2026-06-26T17:55:45.342048,12.30386851,.0005624,51.9609,30.4692,64.5444,13.7022,0,U,32265,999,86140,-.29676E-3,-.13E-5,0
GLOBALSTAR M079,2010-054A,2026-06-26T12:05:53.011392,12.62266185,.0000913,52.0044,80.3080,45.0013,125.7779,0,U,37188,999,72372,-.44632E-4,-.112E-5,0
GLOBALSTAR M074,2010-054B,2026-06-26T15:39:21.902976,12.62261610,.0000632,52.0006,79.1205,64.3572,300.6926,0,U,37189,999,72435,-.40805E-4,-.111E-5,0
GLOBALSTAR M076,2010-054C,2026-06-26T16:20:22.833312,12.62261857,.0000937,52.0029,79.2372,61.2933,313.1483,0,U,37190,999,72407,-.66091E-4,-.116E-5,0
GLOBALSTAR M077,2010-054D,2026-06-26T15:38:07.870272,11.67547973,.0002579,51.9925,155.2729,189.9051,341.0029,0,U,37191,999,72224,.20197E-3,-.67E-6,0
GLOBALSTAR M075,2010-054E,2026-06-26T18:33:52.425216,12.62267386,.0000401,51.9939,121.0038,36.9549,339.0641,0,U,37192,999,72315,-.49938E-4,-.113E-5,0
GLOBALSTAR M073,2010-054F,2026-06-26T14:52:07.098240,12.62266644,.0001063,52.0075,35.5809,66.3959,327.9293,0,U,37193,999,72512,.73803E-4,-.91E-6,0
GLOBALSTAR M083,2011-033A,2026-06-26T16:58:04.150272,12.62263624,.0000958,51.9880,343.5298,82.3849,290.9882,0,U,37739,999,69415,.15656E-3,-.76E-6,0
GLOBALSTAR M088,2011-033B,2026-06-26T15:10:02.943264,12.62268977,.0000498,52.0203,250.2110,140.7820,10.0137,0,U,37740,999,68968,.12254E-3,-.82E-6,0
GLOBALSTAR M091,2011-033C,2026-06-26T13:39:16.224192,12.62264096,.000007,51.9969,213.3536,178.3875,346.6598,0,U,37741,999,69046,.15368E-3,-.76E-6,0
GLOBALSTAR M085,2011-033D,2026-06-26T17:10:07.371840,12.62264177,.0000331,52.0098,164.2065,354.6933,176.1225,0,U,37742,999,69099,.40328E-4,-.97E-6,0
GLOBALSTAR M081,2011-033E,2026-06-26T17:48:23.622048,12.62265240,.0000229,51.9930,166.5512,35.5209,135.8320,0,U,37743,999,69114,.71745E-4,-.91E-6,0
GLOBALSTAR M089,2011-033F,2026-06-26T14:56:59.409312,12.62267377,.0000491,51.9919,121.0703,78.1915,92.9578,0,U,37744,999,69197,-.4135E-4,-.111E-5,0
GLOBALSTAR M084,2011-080A,2026-06-26T05:45:47.582784,12.62267637,.0001099,52.0028,349.7217,100.2401,70.5922,0,U,38040,999,66990,.4999E-4,-.95E-6,0
GLOBALSTAR M080,2011-080B,2026-06-26T17:32:51.377280,12.62269710,.0000416,52.0084,349.9485,78.5089,294.7661,0,U,38041,999,67009,.96885E-4,-.86E-6,0
GLOBALSTAR M082,2011-080C,2026-06-26T18:37:27.817824,12.62263711,.0000474,52.0090,305.3144,106.0366,41.0504,0,U,38042,999,67080,.50129E-5,-.103E-5,0
GLOBALSTAR M092,2011-080D,2026-06-26T13:30:26.263872,12.62267093,.0000818,52.0097,36.3604,77.1480,299.7277,0,U,38043,999,66923,.41038E-4,-.96E-6,0
GLOBALSTAR M090,2011-080E,2026-06-26T17:21:34.611264,12.62269100,.0000724,52.0135,299.4334,102.7186,43.9741,0,U,38044,999,67091,.20771E-6,-.104E-5,0
GLOBALSTAR M086,2011-080F,2026-06-26T17:53:04.593120,12.62287228,.000169,51.9911,299.2812,83.6353,64.1565,0,U,38045,999,67086,.15053E-3,-.77E-6,0
GLOBALSTAR M097,2013-005A,2026-06-26T08:21:33.698880,12.62271183,.0000136,52.0016,215.4501,101.4550,258.6332,0,U,39072,999,61806,.16732E-3,-.74E-6,0
GLOBALSTAR M093,2013-005B,2026-06-26T09:36:55.510272,12.62266064,.0000214,52.0076,208.6399,41.7015,318.3868,0,U,39073,999,61802,.1462E-3,-.78E-6,0
GLOBALSTAR M094,2013-005C,2026-06-26T13:24:47.393568,12.62268488,.0000649,51.9945,122.2641,27.4892,332.6009,0,U,39074,999,61965,-.10073E-3,-.122E-5,0
GLOBALSTAR M096,2013-005D,2026-06-26T06:08:08.072736,12.62265644,.0000254,52.0044,171.9966,358.7233,1.3633,0,U,39075,999,61853,.51738E-4,-.94E-6,0
GLOBALSTAR M078,2013-005E,2026-06-26T13:05:26.613888,12.62259766,.0000488,51.9866,255.1129,269.8316,90.2495,0,U,39076,999,61719,.72985E-3,.27E-6,0
GLOBALSTAR M095,2013-005F,2026-06-26T13:43:55.331616,12.62263623,.0000063,52.0075,252.6491,96.8414,263.2460,0,U,39077,999,61705,.12517E-3,-.81E-6,0
GLOBALSTAR M087,2022-064A,2026-06-26T17:50:58.360128,12.62269220,.0000887,52.0011,33.3583,57.9165,302.1788,0,U,52888,999,19234,.29823E-4,-.98E-6,0
